{"features":[{"geometry":{"type":"LineString","coordinates":[[-108.88173300943976,40.098586199313324],[-108.98825086462847,40.15810284185169],[-109.08452661942782,40.20818169382911],[-109.1336887074054,40.27072826428647],[-109.18489921384392,40.276979743034715],[-109.26478760568462,40.336339965905744],[-109.33238547598006,40.41748518819342],[-109.36311178074148,40.47983807707853],[-109.33238547598006,40.5685909688097],[-109.26888444709802,40.64168475615686],[-109.2033349970601,40.68208526973487],[-109.19718973628747,40.74264015369155],[-109.13164028624955,40.80469050995562],[-109.13778554702216,40.88372064975173],[-109.16031817075343,40.95182777705397],[-109.21152867809025,40.99049374089639],[-109.21972236001874,41.04767777888124],[-109.20538341731763,41.086287533824986],[-109.16646343242435,41.14955844874287],[-109.16851185178359,41.22817616318643],[-109.22791604104889,41.29438832594437],[-109.26478760568462,41.35745832485515],[-109.29961075185943,41.43889735628809],[-109.29551391134433,41.500293196205085],[-109.39998334717383,41.54936799926668],[-109.5085496226201,41.570826521120324],[-109.60892221793452,41.5784885518459],[-109.69290745029029,41.64893658610765],[-109.75845690032821,41.730009563708656],[-109.80761898830579,41.80792670722264],[-109.83220003139628,41.82471995781295],[-109.92642736593808,41.833878056314134],[-110.00221891726369,41.87049734874561],[-110.07801046769099,41.89184892100758]],"crs":null},"id":1,"type":"Feature","properties":{"length":null,"id":null,"type":null,"SHAPE__Length":358652.3696824847,"objectid":1}},{"geometry":{"type":"LineString","coordinates":[[-109.75640848007068,41.59840557796303],[-109.69085903003274,41.62444164875329],[-109.67652008822998,41.682601923792895],[-109.61916431922221,41.70554546912645],[-109.53108224635136,41.72542325613264],[-109.44095175322296,41.78501972494289],[-109.30985285314713,41.844560849312195],[-109.19514131602992,41.89947275389795],[-109.13573712676462,41.931482910909125],[-109.02717085131839,41.93300680430257],[-108.92679825600395,41.93300680430257],[-108.80184461670073,41.9695693082882],[-108.7096657033148,41.97109229009356],[-108.64821309379195,41.98784269401235],[-108.50892051268599,42.06544608389756],[-108.33890162681855,42.136879046161624],[-108.14430169786066,42.20671422430029],[-107.9906701749519,42.250701119220565],[-107.90053968182349,42.29920280829975],[-107.8370386520431,42.324954146947235],[-107.7755860434186,42.382477865120954],[-107.68545554939189,42.42331798289772],[-107.61580925883888,42.44146061312931],[-107.53592086699818,42.44448387413401],[-107.4662745773435,42.48528361915431],[-107.36180514061569,42.56227725101128],[-107.19793151641922,42.65876244372856],[-107.08526839866124,42.715979803055426],[-107.02791263055181,42.79118549821854],[-107.01357368874902,42.87981082324462],[-106.97465370295744,42.97730172986547],[-106.93573371716587,43.0282355017501],[-106.93778213742341,43.02673805304011]],"crs":null},"id":2,"type":"Feature","properties":{"length":null,"id":null,"type":null,"SHAPE__Length":404319.59696894593,"objectid":2}},{"geometry":{"type":"LineString","coordinates":[[-107.6014703170361,43.28376202593901],[-107.50314614197923,43.27481427276796],[-107.40687038807822,43.25989842610603],[-107.33107883585429,43.21662180293463],[-107.23480308195326,43.14193475906763],[-107.15901152972933,43.08660753391112],[-107.07502629827185,43.04620204604365],[-107.00333158656302,43.03422493522326],[-106.9360335379768,43.0279870808929],[-106.88148656909712,43.032006601850284],[-106.80053797657496,43.05218972403111],[-106.67763275842759,43.14940757500846],[-106.58545384414336,43.207664182298984],[-106.52809807603391,43.31506880016826],[-106.46869388676859,43.40889239776579],[-106.40928969840161,43.478793272044854],[-106.3888054949279,43.53673480478188],[-106.34783708887879,43.58275121693183],[-106.29867500090121,43.59907117422739],[-106.2126413491862,43.671715395986354],[-106.17167294223874,43.79308681471076],[-106.14914031940583,43.896501932707096],[-106.14504347799243,43.97320853071918],[-106.11022033271593,44.04098188518837],[-105.94020144774683,44.15425527991363],[-105.83778043217487,44.21888550298091],[-105.83982885333072,44.27024530368001],[-105.77632782265205,44.286377693868424],[-105.71282679376995,44.333283099733194],[-105.67595522823594,44.37136613975115],[-105.66776154720577,44.46354164314286],[-105.6247447200008,44.50738366918407],[-105.57763105317905,44.5424335640664],[-105.50593634326685,44.54681331812658],[-105.47725845786464,44.618302657959845],[-105.38917638499379,44.730465433931066],[-105.30109431212293,44.80318215123045],[-105.25398064530118,44.89032137689572],[-105.18433435384988,44.98022675874658],[-105.12697858574043,45.06854468505695],[-105.08805859994884,45.10470119327825],[-104.9098460330513,45.10180951491401],[-104.91394287356636,45.18849615381462],[-104.79923133734748,45.29810999808345],[-104.71934294460846,45.391690890979255],[-104.53908195835167,45.55400945311074],[-104.48582302985899,45.61708668597597],[-104.39774095608982,45.704417429978484],[-104.30146520218881,45.794468492908734],[-104.26459363575646,45.89150343614995],[-104.24820627369614,46.02820583715195],[-104.25025469395366,46.20144519186527],[-104.2461578543369,46.25387737512563],[-104.16422104134034,46.31474915397961],[-104.10686527323091,46.310504479993],[-103.97986321367014,46.268039638777246],[-103.93479796710595,46.232627120778226],[-103.92865270633334,46.20995111017398]],"crs":null},"id":3,"type":"Feature","properties":{"length":null,"id":null,"type":null,"SHAPE__Length":764308.1553465591,"objectid":3}},{"geometry":{"type":"LineString","coordinates":[[-106.40583298927316,43.48520300272868],[-106.30021131676808,43.42711902513316]],"crs":null},"id":4,"type":"Feature","properties":{"length":null,"id":null,"type":null,"SHAPE__Length":14750.804841760835,"objectid":4}},{"geometry":{"type":"LineString","coordinates":[[-107.06196761834403,42.74221815208286],[-106.997954484173,42.73751675618207]],"crs":null},"id":5,"type":"Feature","properties":{"length":null,"id":null,"type":null,"SHAPE__Length":7161.450401310819,"objectid":5}},{"geometry":{"type":"LineString","coordinates":[[-108.31579872379886,42.84460423527757],[-108.27384707573866,42.83476057792585],[-108.21595380157729,42.78798179167861],[-108.14799213155806,42.7060337913162],[-108.06324980357239,42.62891624772704],[-108.01626395803244,42.575803828817286],[-107.9759903763977,42.55417534691481],[-107.93823389305369,42.53439417406093],[-107.91222387109468,42.50718482730222],[-107.91306290385826,42.4743941999256],[-107.8769844869397,42.44282472615996],[-107.85600866335875,42.421769567975964],[-107.84510123473736,42.38087760074482],[-107.83419380611592,42.34430010091627],[-107.79811538919738,42.3139059922378],[-107.75196857642099,42.2772895169874],[-107.71169499388796,42.24003059088673],[-107.62275750118611,42.231954921845],[-107.50613192009978,42.227606057047424]],"crs":null},"id":6,"type":"Feature","properties":{"length":null,"id":null,"type":null,"SHAPE__Length":140186.20918450507,"objectid":6}},{"geometry":{"type":"LineString","coordinates":[[-108.71853454373947,41.97111665774688],[-108.71601744544874,41.93367730487271],[-108.70175388397641,41.90495891021997],[-108.6371483468081,41.875602854098204],[-108.59939186436239,41.8531082396895],[-108.58345023736291,41.81935148226361],[-108.57757700711957,41.78182309127933],[-108.57422087516697,41.73112490483891],[-108.56247441288367,41.69667738282101],[-108.55911828182937,41.632116914030206],[-108.54149859020104,41.588203926093776],[-108.52136179938367,41.55179623517854]],"crs":null},"id":7,"type":"Feature","properties":{"length":null,"id":null,"type":null,"SHAPE__Length":70180.23183663048,"objectid":7}},{"geometry":{"type":"LineString","coordinates":[[-109.20743183757516,37.260840727989276],[-109.13573712676462,37.330911513999695],[-109.10091398238644,37.38138715978265],[-108.99029928488602,37.45297171391342],[-108.96162140128045,37.48873832692208],[-108.89197510982913,37.493614266858366],[-108.85510354519342,37.526112393854916],[-108.83052250120461,37.545604478006965],[-108.82847408094709,37.574833049756585]],"crs":null},"id":9,"type":"Feature","properties":{"length":null,"id":null,"type":null,"SHAPE__Length":64434.13339109776,"objectid":9}},{"geometry":{"type":"LineString","coordinates":[[-108.91172188179453,37.5761318306475],[-108.79111089440751,37.5750928081741],[-108.76095814778532,37.57093656903537],[-108.7294944124139,37.5418364052128],[-108.70458562078865,37.52000382623532],[-108.69803067614417,37.423239894117145]],"crs":null},"id":10,"type":"Feature","properties":{"length":null,"id":null,"type":null,"SHAPE__Length":39940.886867185625,"objectid":10}},{"geometry":{"type":"LineString","coordinates":[[-108.77275704922333,37.70796991605448],[-108.77275704922333,37.57093656903537]],"crs":null},"id":11,"type":"Feature","properties":{"length":null,"id":null,"type":null,"SHAPE__Length":19263.8988,"objectid":11}},{"geometry":{"type":"LineString","coordinates":[[-108.7950438606552,37.471117280012905],[-108.77537902582348,37.47215775296588],[-108.7714460595758,37.521043618307125],[-108.73867133455684,37.52936142823469],[-108.72293946687113,37.53455958874302]],"crs":null},"id":12,"type":"Feature","properties":{"length":null,"id":null,"type":null,"SHAPE__Length":14794.930193371403,"objectid":12}},{"geometry":{"type":"LineString","coordinates":[[-108.86977023373436,37.397206726217235],[-108.82257462977891,37.396165210819106],[-108.7714460595758,37.40866243532865],[-108.73998232420436,37.422198741308925],[-108.66132298397922,37.423239894117145],[-108.52104716086215,37.424281033161826],[-108.43714386474174,37.421157574024],[-108.39519221668154,37.399289712879586],[-108.33750870183395,37.383665904310575],[-108.28244716358651,37.37012263601063],[-108.23000760373584,37.352408518696286],[-108.19461090121843,37.32530825283108],[-108.17887903263441,37.271078391833186],[-108.18117326429301,37.23148939494106],[-108.17707642287962,37.166223290783236],[-108.17707642287962,37.0796588200957],[-108.18731852506563,37.01753281569566],[-108.17912484313717,36.978269144978135],[-108.07465540820598,36.978269144978135],[-108.02959016074347,36.94880808909855],[-107.9906701749519,36.90787104734247],[-107.95584702967541,36.87346694583341],[-107.92716914606983,36.86363435525911],[-107.91487862362628,36.83740792690085],[-107.91078178311119,36.79805141713145],[-107.88620074002071,36.76852075681812],[-107.86571653564866,36.7307705787625],[-107.82269971024033,36.71106746211607],[-107.78787656496384,36.69792924334208],[-107.7510049994298,36.67986052420688],[-107.73052079595608,36.653571175140286],[-107.73461763736948,36.587808522717594],[-107.73461763736948,36.5022332417744],[-107.7612471007175,36.464352428784075],[-107.7407628981421,36.428101281332104],[-107.72642395633933,36.38028980221137],[-107.73052079595608,36.31924625021803],[-107.73666605672871,36.27136785726223],[-107.73871447698623,36.241635457117546],[-107.74485973775886,36.21354446767426],[-107.7120850127399,36.16890863402696],[-107.6465355636003,36.09114855071318],[-107.6117124183238,36.05141156882758],[-107.5707440122747,36.008340522681785],[-107.51543666442278,35.98348113072544],[-107.42120932988098,35.97021958567888],[-107.35361145958554,35.965245931849324],[-107.30649779276379,35.9486648231159],[-107.29215885006269,35.90553765198964],[-107.19997993667677,35.815890708147094],[-107.16105995088519,35.77933882103631],[-107.1221399650936,35.72281647369402],[-107.07297787801431,35.664589788340365],[-106.98489580424516,35.60965141775624],[-106.8927168908592,35.561341077772454],[-106.85379690506764,35.536341535724965],[-106.79644113605985,35.538008414300094],[-106.74523062782474,35.49632605884029],[-106.67148749675665,35.464632997753505],[-106.62847067134831,35.40788791926705],[-106.5240012346205,35.35444426628505],[-106.47688756779876,35.33606483518884],[-106.40928969840161,35.32770916573112],[-106.3642244509391,35.304308697707505],[-106.31096552334475,35.26752285698735],[-106.26180343626547,35.22737379179654],[-106.25565817459454,35.17883382027237],[-106.21059292803034,35.12021247223532],[-106.16757610172368,35.074961442767666],[-106.11022033271593,35.03974884004712],[-106.03852562190538,35.01458768473496],[-105.9934603762395,34.98270577163586],[-105.9033298822128,34.9239434281049],[-105.75174677866323,34.813019887699106],[-105.65137418424713,34.737304458248076],[-105.54485632816011,34.661519586212904],[-105.44653215400153,34.59409701291704],[-105.37483744319101,34.524932040862275],[-105.31133641341063,34.491172166912385],[-105.23349644182747,34.43205949175423],[-105.15155962883092,34.37797700263773],[-105.05733229518744,34.32047606825752],[-104.93647549729762,34.2426179419563],[-104.86273236622954,34.17994061587993],[-104.76645661232853,34.11382488518852],[-104.67222927778673,34.03917068731183],[-104.56980826221478,33.95595566218541],[-104.49606513114668,33.90496747414978],[-104.42232200007862,33.85394877068171],[-104.34448202759715,33.804601707055916],[-104.27483573794247,33.75011673092872],[-104.23796417240843,33.710934255633966],[-104.16831788185542,33.67343862972216],[-104.0966231710449,33.618870342920715],[-104.02288003997681,33.56597434284179],[-103.95937901109475,33.51475379368053],[-103.88358745887082,33.46008509867066],[-103.83647379204908,33.439575442866484],[-103.72381067518941,33.40025171732156],[-103.60705071781469,33.34379962177302],[-103.4124507888568,33.273611161133005],[-103.27520662800835,33.20850801819592],[-103.11133300291354,33.13134952294665],[-102.99662146579635,33.0781564029565],[-102.85118362391773,33.02321361625414]],"crs":null},"id":13,"type":"Feature","properties":{"length":null,"id":null,"type":null,"SHAPE__Length":977420.4520077095,"objectid":13}},{"geometry":{"type":"LineString","coordinates":[[-103.76068224072347,33.407091905346235],[-103.79550538599996,33.335243078893484],[-103.79960222741335,33.259909266081834],[-103.79960222741335,33.1827960673593],[-103.77092434201117,33.162221071367355]],"crs":null},"id":14,"type":"Feature","properties":{"length":null,"id":null,"type":null,"SHAPE__Length":34841.60763234576,"objectid":14}},{"geometry":{"type":"LineString","coordinates":[[-103.33051397586024,33.23078560203794],[-103.36533712203504,33.17079457300581],[-103.38991816512554,33.129634119276965],[-103.3919665862814,33.06442391981289],[-103.38991816512554,32.98370231995744],[-103.40425710692831,32.94589235235262],[-103.40220868667079,32.847854934290446],[-103.40016026731155,32.79793462224267],[-103.67055174669674,32.799656479227075],[-103.77092434201117,32.80310009315549]],"crs":null},"id":15,"type":"Feature","properties":{"length":null,"id":null,"type":null,"SHAPE__Length":100543.53917120199,"objectid":15}},{"geometry":{"type":"LineString","coordinates":[[-105.09805489073379,37.537678312142006],[-105.0600362098196,37.53040108917711],[-105.02332851765462,37.5387178571487],[-105.01415159461338,37.59690925393971],[-105.00104170532447,37.620796120276424],[-105.00235269407369,37.65609308393015],[-105.00497467157216,37.676848171226354]],"crs":null},"id":16,"type":"Feature","properties":{"length":null,"id":null,"type":null,"SHAPE__Length":28397.239945360947,"objectid":16}},{"geometry":{"type":"LineString","coordinates":[[-105.17802521970818,37.70278386579913],[-105.14262851719077,37.677885772985476],[-105.0718351112576,37.67996093297001],[-104.9957977494292,37.67892336023337],[-104.95909005726426,37.68514857968938],[-104.91451643080728,37.70796991605448],[-104.89091862972788,37.728710490247444],[-104.85289994881369,37.71315560414157],[-104.81357027915026,37.698634764191326],[-104.77030764234084,37.68514857968938],[-104.7388439060711,37.648827433317365],[-104.68378236782367,37.6083343642884],[-104.63265379672222,37.55430929590924],[-104.5671043466843,37.50336519108332],[-104.48451204110977,37.45134555290853],[-104.42027357982107,37.410745102843514],[-104.37045599836718,37.37324822272893],[-104.32588237191021,37.336774943334255],[-104.28393072385,37.30549802921813],[-104.2380461086438,37.261688485230195],[-104.24066808704058,37.214721394190285],[-104.22886918560256,37.171903682785754],[-104.22755819685334,37.1290616951797],[-104.21444830666609,37.08828704083182],[-104.1960944605836,37.04853677826942],[-104.17774061539943,37.02342061697985],[-104.17774061539943,36.99724911719998],[-104.20002742772961,36.97630542874862],[-104.2026494061264,36.949070014957236],[-104.1921614943359,36.918680560685736],[-104.13447797859001,36.881987501231315],[-104.08859336428212,36.85366937212879],[-104.04664171622193,36.82848889210708],[-104.01779995834897,36.78860284427005],[-104.00469006816172,36.75814951531518],[-104.0033790794125,36.74554459985308]],"crs":null},"id":17,"type":"Feature","properties":{"length":null,"id":null,"type":null,"SHAPE__Length":218027.08588025058,"objectid":17}},{"geometry":{"type":"LineString","coordinates":[[-104.0064926779165,36.69300183085374],[-104.00854109817404,36.6601443542822],[-104.04131582319299,36.62398492416311],[-104.04541266370808,36.59438731197637],[-104.02083161971927,36.55984241171358],[-104.00239583740141,36.52198979122977],[-103.99010531495784,36.48741252095901],[-103.94913690890874,36.428101281332104],[-103.90407166234453,36.35884752107726],[-103.86924851706804,36.307692086686274],[-103.8180380088329,36.273019324698524],[-103.77706960278378,36.221807571084554],[-103.75044013943575,36.163947526702614],[-103.72381067518941,36.09776942966487],[-103.70537489287156,36.039817834874135],[-103.66645490707998,35.97685063672934],[-103.63163176090518,35.91549216416405],[-103.59885703678452,35.860726853961836],[-103.55584020957956,35.79097079072958],[-103.51077496301536,35.71949037985708],[-103.46366129619362,35.647945784705904],[-103.43703183194727,35.58966446769137],[-103.4124507888568,35.531340692178105],[-103.3919665862814,35.48631907374337],[-103.36533712203504,35.44627867216004],[-103.33256239701609,35.40788791926705],[-103.32641713624348,35.32770916573112],[-103.32641713624348,35.277557017024904],[-103.32436871508763,35.22402713910013],[-103.29569083058372,35.17883382027237],[-103.26496452672063,35.12021247223532],[-103.23833506337262,35.05987218676876],[-103.21989928015644,34.992775086356964],[-103.20760875771288,34.9239434281049],[-103.17688245295147,34.85673490195256],[-103.16254351114868,34.81974678497404],[-103.15434983011853,34.74403753225683],[-103.16049509089115,34.69689449724516],[-103.14820456934589,34.626129567152006],[-103.14205930767497,34.57385956021691],[-103.14001088831574,34.524932040862275],[-103.11133300291354,34.491172166912385],[-103.109284582656,34.42530109298783],[-103.10723616329678,34.33400924691116],[-103.10723616329678,34.24939107625601],[-103.11747826368618,34.157907787798315],[-103.11747826368618,34.090078413803916],[-103.11542984432695,34.025590128749236],[-103.10109090162585,33.97634238773645],[-103.08060669905043,33.89816674323933],[-103.06012249557672,33.82162115377644],[-103.04578355377394,33.763741224075844],[-103.02734777055777,33.697301375781315],[-103.00071830720974,33.62228187400127],[-102.9884277847662,33.538660494753515],[-102.95974990116062,33.454958140364674],[-102.94131411794444,33.39683142136786],[-102.9187814951115,33.34379962177302],[-102.89420045112271,33.29587215580557],[-102.87986150931992,33.235925777131555],[-102.87166782828977,33.201652236148995],[-102.84913520366021,33.15193176199381],[-102.83274784159987,33.0970350669885],[-102.8245541596714,33.04553825669188],[-102.84094152263003,33.02149610113944]],"crs":null},"id":18,"type":"Feature","properties":{"length":null,"id":null,"type":null,"SHAPE__Length":528370.2933566499,"objectid":18}},{"geometry":{"type":"LineString","coordinates":[[-103.70971754388941,35.887815523049575],[-103.61925930312455,35.88993973314504],[-103.58910655560405,35.89631202005589],[-103.53666699575338,35.89312594107562],[-103.50520326038198,35.86338301482759],[-103.45145271088374,35.84531936283204],[-103.3609944710172,35.84957000418131],[-103.29544502097929,35.85169523905372]],"crs":null},"id":19,"type":"Feature","properties":{"length":null,"id":null,"type":null,"SHAPE__Length":48645.68468338322,"objectid":19}},{"geometry":{"type":"LineString","coordinates":[[-103.77002303713377,35.813432291175324],[-103.73069336836866,35.83044032369101],[-103.67956479726723,35.83469176310982],[-103.62188128062301,35.83681739593917],[-103.54846589719139,35.83362892424654],[-103.50913622662966,35.837880192089756],[-103.48553842465193,35.84744471234968]],"crs":null},"id":20,"type":"Feature","properties":{"length":null,"id":null,"type":null,"SHAPE__Length":32649.45195062593,"objectid":20}},{"geometry":{"type":"LineString","coordinates":[[-103.48596524119289,35.84744546016553],[-103.46912551360661,35.851623901068024]],"crs":null},"id":21,"type":"Feature","properties":{"length":null,"id":null,"type":null,"SHAPE__Length":1960.4580641444031,"objectid":21}},{"geometry":{"type":"LineString","coordinates":[[-100.79188108429588,37.10712926012713],[-100.77587780142686,37.08670609066299],[-100.77587780142686,37.033069083890595],[-100.76307517369433,36.98450769668611],[-100.75027254686015,36.93335693791532],[-100.73106860705799,36.88217182912224],[-100.66705547198866,36.83095238667864],[-100.59984168088451,36.77200760806814],[-100.53262788888203,36.718148850783095],[-100.47821672461205,36.67452122680917],[-100.43980884410945,36.62830029267718],[-100.46541409777788,36.58462171992745],[-100.5902397100851,36.48947112418824],[-100.69586138169188,36.37616674476961],[-100.80468371113008,36.283340210169186],[-100.92310800957107,36.19040313831264]],"crs":null},"id":22,"type":"Feature","properties":{"length":null,"id":null,"type":null,"SHAPE__Length":161978.3384039099,"objectid":22}},{"geometry":{"type":"LineString","coordinates":[[-101.06073624961081,36.27817993800658],[-101.00632508534088,36.24721114382635],[-100.95191392107093,36.2394670270091],[-100.90390406976891,36.20848288716581]],"crs":null},"id":23,"type":"Feature","properties":{"length":null,"id":null,"type":null,"SHAPE__Length":20408.854763248386,"objectid":23}},{"geometry":{"type":"LineString","coordinates":[[-100.57423642721608,36.497190398320306],[-100.54543051571622,36.46888263094419]],"crs":null},"id":24,"type":"Feature","properties":{"length":null,"id":null,"type":null,"SHAPE__Length":5063.910289653486,"objectid":24}},{"geometry":{"type":"LineString","coordinates":[[-100.89240218999137,36.51935587583174],[-100.89371317874061,36.48247164971729],[-100.94221977234358,36.44346065272156],[-100.99990328808948,36.41814572931201],[-101.04709889114662,36.38543506999329],[-101.08905053920682,36.34003942791575],[-101.1113373524353,36.30306994269056],[-101.15722196674321,36.26079763274478],[-101.22146042803189,36.23225088395153],[-101.26734504323808,36.22379058571594],[-101.30011976825705,36.18147536814147],[-101.33944943792048,36.12325460299752],[-101.38271207472991,36.069229465266574],[-101.41024284385361,36.03849272785543],[-101.40893185510438,35.95257827874755],[-101.4128648222504,35.88887763485652],[-101.41155383260283,35.83362892424654],[-101.41548679974885,35.774087260345205],[-101.42597471243764,35.74961972119688],[-101.4246637227901,35.699597441327604],[-101.4246637227901,35.65167434277419]],"crs":null},"id":25,"type":"Feature","properties":{"length":null,"id":null,"type":null,"SHAPE__Length":145118.69070706744,"objectid":25}},{"geometry":{"type":"LineString","coordinates":[[-96.61217824174467,28.792027456340964],[-96.5059409672501,28.899041521262948],[-96.36252064537989,29.015236136079082],[-96.2403477778696,29.019881207628938],[-96.12348677529674,29.122019885768655],[-96.03318509112296,29.131300199155643],[-95.8950766332919,29.261136550760636],[-95.67197835532616,29.455582244054074]],"crs":null},"id":56,"type":"Feature","properties":{"length":null,"id":null,"type":null,"SHAPE__Length":139629.82148547308,"objectid":56}},{"geometry":{"type":"LineString","coordinates":[[-101.10084943974653,36.74764556326508],[-101.21490548338741,36.748696023040665],[-101.2712780103841,36.78860284427005],[-101.32896152613,36.83898176601358],[-101.38402306437744,36.88827899273221],[-101.51512196265664,36.895618410774674],[-101.61344613771352,36.89666684207446],[-101.66064174166897,36.864158791949215],[-101.74454503778934,36.80959809128898],[-101.8334300922348,36.75533459724085],[-101.91146015721355,36.707591307217456],[-101.98949022219229,36.66251056135876],[-102.23857792644252,36.520343604793936],[-102.3441995980493,36.45343767168593],[-102.43701864372017,36.412236077043964],[-102.46902521125483,36.37616674476961],[-102.51703506165852,36.36070333699409],[-102.62905804713155,36.311715606055124],[-102.76988694410444,36.24462985729101],[-102.88831124344374,36.192986213965604],[-103.00673554188471,36.13613884300216],[-103.07394933298886,36.08183699693181],[-103.10275524269208,36.030086062348644],[-103.1490337700487,35.99128318266041],[-103.20021478030483,35.94442746030978],[-103.23293706527078,35.911815777026796],[-103.27404967966909,35.87783097384704],[-103.29334743772287,35.85879311178716],[-103.29502550414834,35.85131270095121],[-103.28160097723621,35.839070505826534],[-103.24132739470315,35.81934299522257],[-103.19434154916318,35.808456753312605],[-103.16581442891345,35.80165209295129],[-103.14148247337988,35.78531853065437],[-103.1297360119949,35.76013104603037],[-103.1297360119949,35.7267623717053],[-103.12889697923133,35.683839242223904],[-103.11882858337347,35.67497921302991],[-103.1213456816642,35.628618412882325],[-103.11966761613705,35.59997036286511],[-103.12805794556944,35.58427779716432],[-103.12721891280586,35.525573998967985],[-103.12805794556944,35.499621419773106],[-103.11127728580637,35.478443368118626],[-103.12470181361681,35.45384249602239],[-103.14399957167062,35.425131971280244],[-103.17420475834582,35.40051480111876],[-103.17839992306202,35.37725834716756],[-103.17588282387297,35.345783061901116],[-103.16245829696084,35.286220179356754],[-103.14651667085965,35.24991324822448],[-103.13644827500183,35.21153353365167],[-103.12386278085324,35.16764877781861],[-103.1070821219885,35.110700445160916],[-103.09289722059569,35.04813416964476],[-103.07446143827784,34.97263521993727],[-103.07036459686444,34.90882630301952],[-103.07446143827784,34.83656162573176],[-103.07036459686444,34.73225429321955],[-103.06831617660688,34.63455713195787],[-103.06626775724767,34.56542583314169],[-103.06177434197569,34.51207249227801],[-103.0265349578207,34.45674463031605],[-102.99884687033455,34.41176372763315],[-102.96444651894315,34.3722990190484],[-102.91829970616676,34.3037108453603],[-102.89145065144417,34.260728082631196],[-102.85201610167468,34.205233984957495],[-102.81090348817469,34.151092039650436],[-102.77734216864856,34.10108403569088],[-102.74378085091904,34.05869300372489],[-102.69847307090622,33.98497944901986],[-102.65903852203508,33.91468341708787],[-102.63722366479223,33.86244584211007],[-102.61373074202226,33.82132980921611],[-102.5860426554344,33.77740441466594],[-102.58268652258347,33.727176369687335],[-102.58520362177252,33.67342772016856],[-102.58100845705633,33.591693357724914],[-102.58520362177252,33.530866270277755],[-102.58352555624538,33.47139614927748],[-102.58352555624538,33.4328937177713],[-102.6196039731639,33.37335635030313],[-102.63722366479223,33.322191704942334],[-102.6464530278865,33.26748942020594],[-102.6615556212241,33.21696457125053],[-102.66407272041316,33.161494000153816],[-102.67917531285244,33.09122773513233],[-102.69259983976457,33.05044754577177],[-102.75217118035143,33.04833771211533],[-102.79580089393878,33.049744272749834],[-102.81509865199256,33.00824126062536]],"crs":null},"id":26,"type":"Feature","properties":{"length":null,"id":null,"type":null,"SHAPE__Length":731765.7405620478,"objectid":26}},{"geometry":{"type":"LineString","coordinates":[[-102.36202085455939,33.03695252562977],[-102.63077359935552,33.03475444430954],[-102.78547030140906,33.03365538308559]],"crs":null},"id":27,"type":"Feature","properties":{"length":null,"id":null,"type":null,"SHAPE__Length":47140.21892974762,"objectid":27}},{"geometry":{"type":"LineString","coordinates":[[-102.6442931734146,33.49767353391771],[-102.63609949238445,33.472046824070446],[-102.55621109964542,33.4652117552982],[-102.52548479578232,33.43786608603025],[-102.46403218625947,33.40025171732156]],"crs":null},"id":28,"type":"Feature","properties":{"length":null,"id":null,"type":null,"SHAPE__Length":25963.9934926429,"objectid":28}},{"geometry":{"type":"LineString","coordinates":[[-102.46608060741534,33.47375550797144],[-102.5193395350097,33.50108985628805],[-102.48861323024829,33.53524565586129],[-102.42920904098298,33.59157323187562],[-102.42101535995283,33.64274822530764],[-102.35956275132831,33.65468468327248],[-102.20593122841953,33.75522617007334],[-102.17315650340056,33.78417390289446],[-102.11784915375203,33.79098371181817],[-102.04820286409736,33.83693575973326]],"crs":null},"id":29,"type":"Feature","properties":{"length":null,"id":null,"type":null,"SHAPE__Length":79813.29941651029,"objectid":29}},{"geometry":{"type":"LineString","coordinates":[[-102.51114585308123,33.51304592015084],[-102.51729111385386,33.55743969297887],[-102.48656480999075,33.58986687630324],[-102.43535430175561,33.59157323187562]],"crs":null},"id":30,"type":"Feature","properties":{"length":null,"id":null,"type":null,"SHAPE__Length":17193.37943662145,"objectid":30}},{"geometry":{"type":"LineString","coordinates":[[-103.9887142090617,32.00012928330966],[-103.99813512261895,31.981164521001233],[-103.98371424368247,31.958921624833025],[-103.98502523333,31.935560784835936],[-104.00862303530772,31.917758064072327],[-104.02828787013944,31.923321785125076]],"crs":null},"id":31,"type":"Feature","properties":{"length":null,"id":null,"type":null,"SHAPE__Length":14922.525922802452,"objectid":31}},{"geometry":{"type":"LineString","coordinates":[[-103.516995292403,32.000358508132095],[-103.4422757878425,32.028968490201876],[-103.36754941476335,32.05008323165481],[-103.28102414204281,32.07230401395206],[-103.20105381306841,32.08452314287162],[-103.11321754980202,32.08563389233301]],"crs":null},"id":32,"type":"Feature","properties":{"length":null,"id":null,"type":null,"SHAPE__Length":46784.26921662666,"objectid":32}},{"geometry":{"type":"LineString","coordinates":[[-103.22596260379535,31.932223037050964],[-103.18915602598223,32.00032031774745],[-103.1355043630305,32.05341669317025],[-103.11321754980202,32.08563389233301],[-103.06457500426563,32.127582345717734],[-103.03062524332915,32.15447394898212],[-102.96769777168802,32.16668208179722],[-102.87068458627868,32.18554598007329],[-102.79989118034554,32.199968677304575],[-102.71598788422513,32.21549825611039],[-102.67928019206019,32.21549825611039]],"crs":null},"id":33,"type":"Feature","properties":{"length":null,"id":null,"type":null,"SHAPE__Length":76839.05470380836,"objectid":33}},{"geometry":{"type":"LineString","coordinates":[[-103.06457600588716,32.1449893488666],[-103.06458475278308,32.180182337991745],[-103.08699777032584,32.21212634384072],[-103.08605385835452,32.26242582668308],[-103.08652581434019,32.302725138628176],[-103.08558190236887,32.34101283101424],[-103.06473343204745,32.36294123612718],[-103.04782541902486,32.37689283625926],[-103.05160106691011,32.398015509623605],[-103.07047930903128,32.41634439306525],[-103.0874697263115,32.42988943462394],[-103.08935755025412,32.45179622610289],[-103.08794168229716,32.52623947364661],[-103.08039038562833,32.5767620511221],[-103.08713603901437,32.637979719289454],[-103.04450329100068,32.73011000470429],[-103.00647948879106,32.80761963409486],[-102.9961093614057,32.83473205320023],[-102.91890952120917,32.88119122798596],[-102.8924080830605,32.936329883177734],[-102.84055744433705,33.00592960098159]],"crs":null},"id":34,"type":"Feature","properties":{"length":null,"id":null,"type":null,"SHAPE__Length":126312.89061620193,"objectid":34}},{"geometry":{"type":"LineString","coordinates":[[-95.59117647296125,37.04347818573616],[-95.59083551470022,36.999290564843086],[-95.69286251122226,36.98439037633967],[-95.76082418034316,36.980620299732124],[-95.80566000437032,36.97232547606259],[-95.93733573874124,36.968931878813386],[-95.99397046330809,36.95988154503366],[-96.01898413324277,36.95045297079925],[-96.04494171604709,36.926310501159726],[-96.09762380844806,36.895814992695534],[-96.15956803897643,36.88224965667173],[-96.28861851789641,36.862192134903665],[-96.39259633272036,36.83740792690085],[-96.58441777160616,36.81077531512434],[-96.68343808890594,36.78482554892645]],"crs":null},"id":35,"type":"Feature","properties":{"length":null,"id":null,"type":null,"SHAPE__Length":133392.88761381354,"objectid":35}},{"geometry":{"type":"LineString","coordinates":[[-97.7492567802646,36.37568355979797],[-97.78706453764839,36.29736797409541],[-97.79066527725962,36.202994833189216],[-97.78886490700485,36.03720383329709],[-97.78886490700485,35.86085006628475],[-97.79066527725962,35.65192505793632],[-97.79426601597254,35.52747915000131],[-97.78886490700485,35.382292618197326],[-97.77446195215325,35.333838917131075],[-97.78706453764839,35.27947747632526],[-97.78886490700485,35.192717486904336],[-97.79066527725962,35.11617415786886],[-97.7834637989355,35.02776549510752],[-97.76726047472745,34.98057506192855],[-97.76005899730163,34.933357418204686],[-97.73485382541298,34.88611257812211],[-97.69164495906152,34.84179585805294],[-97.61782981275208,34.77083945272713],[-97.61963018300683,34.698341809282844],[-97.62503129107618,34.603555278115785],[-97.62143055236328,34.50866043378902],[-97.62143055236328,34.429993750149656]],"crs":null},"id":36,"type":"Feature","properties":{"length":null,"id":null,"type":null,"SHAPE__Length":272543.4126530067,"objectid":36}},{"geometry":{"type":"LineString","coordinates":[[-97.7211710175853,34.49275496584243],[-97.6658636688351,34.47565914071602],[-97.62143055236328,34.47565914071602]],"crs":null},"id":37,"type":"Feature","properties":{"length":null,"id":null,"type":null,"SHAPE__Length":11521.722119200727,"objectid":37}},{"geometry":{"type":"LineString","coordinates":[[-102.81509865199256,33.00824126062536],[-102.79101127806648,32.94793364393281],[-102.7956202238705,32.90054203518032],[-102.79446798719492,32.85022114799133],[-102.78525009558683,32.784373833006455],[-102.78064114978278,32.74561732972092],[-102.78640233226243,32.68939044315492],[-102.7887068047153,32.62148322437484],[-102.78294562313397,32.55449565410588],[-102.77948891400551,32.51466774336623],[-102.75990089501208,32.45537891095933],[-102.7322472201878,32.395078123088496],[-102.7149636736472,32.32207977067822],[-102.69422341797817,32.26656163304386],[-102.67928019206019,32.21549825611039],[-102.6688742174034,32.14176552086484],[-102.65159067086282,32.10761179374128],[-102.64352501593031,32.06758688910364],[-102.61932805113281,32.021683121948236],[-102.61126239620032,31.974778928372483],[-102.61702357778164,31.90926839512936],[-102.61471910532877,31.868178288221976],[-102.59974003213937,31.823153809058116],[-102.57208635821341,31.741858420248143],[-102.54788939341591,31.6702986232054],[-102.51677900856488,31.59181356181931],[-102.49719098957142,31.51228001584194],[-102.47990744392916,31.441526655707662],[-102.46377613406416,31.38547566307399],[-102.42690456763181,31.334312227011225],[-102.40385984040823,31.300844161214446],[-102.37851063893513,31.242739008258305],[-102.35085696411087,31.18952666895934],[-102.29670185293456,31.133325614334126],[-102.2436989766372,31.07709124134203],[-102.1906961021365,31.037608647173005],[-102.12040968019687,30.987244587244728],[-102.07201574970357,30.98428116691739],[-102.02131734765571,30.983293338660996],[-101.95679210819571,30.93191223309126]],"crs":null},"id":38,"type":"Feature","properties":{"length":null,"id":null,"type":null,"SHAPE__Length":305473.1548902526,"objectid":38}},{"geometry":{"type":"LineString","coordinates":[[-102.93504083107416,30.633952731232046],[-102.89586479218895,30.613130450324064],[-102.86360217335726,30.582384611036517],[-102.82557837114766,30.56353556570612],[-102.76681431326897,30.560559065974378],[-102.70228907291067,30.55361354537898],[-102.63776383434899,30.561551242954884],[-102.5962833221126,30.578416695363348],[-102.5156267727876,30.58833617967418],[-102.4683850798682,30.585360441030232],[-102.43727469591549,30.559566878848766],[-102.30015856206302,30.54666752619174],[-102.22871990434611,30.52284883268499],[-102.12847533512935,30.48710984604157],[-102.00518603779071,30.45533083477876],[-101.87267884884396,30.41857342917874],[-101.84272070156682,30.374843891744668]],"crs":null},"id":39,"type":"Feature","properties":{"length":null,"id":null,"type":null,"SHAPE__Length":133007.59197636644,"objectid":39}},{"geometry":{"type":"LineString","coordinates":[[-102.5962833221126,30.578416695363348],[-102.5259969010713,30.649814320144714],[-102.49027757221285,30.67062870675318]],"crs":null},"id":40,"type":"Feature","properties":{"length":null,"id":null,"type":null,"SHAPE__Length":16906.738849804424,"objectid":40}},{"geometry":{"type":"LineString","coordinates":[[-102.4683850798682,30.585360441030232],[-102.47935437007335,30.62697280797145],[-102.49027757221285,30.67062870675318],[-102.48820354637645,30.74049258234513],[-102.4631308813821,30.797519106335347],[-102.38194484257077,30.877776275705287],[-102.32287022182702,30.979125830225833],[-102.29473944995873,31.068320890027692],[-102.28290445511092,31.118690217983648],[-102.23217661257625,31.211209385350422],[-102.18608715633245,31.281151509156814],[-102.13423651671069,31.342185337232355],[-102.03860089419629,31.46020287732167],[-101.96140105399975,31.539780760212636],[-101.88650568625609,31.622234380947777],[-101.78510888126208,31.741858420248143],[-101.66873300218032,31.879920189075683],[-101.53507357655798,32.02852131202118],[-101.43482900823955,32.12029895734029],[-101.35993364139419,32.2197831552566],[-101.32536654831301,32.26656163304386],[-101.31960536583338,32.30844688694661],[-101.24377380623996,32.418181979373934],[-101.14475348894018,32.52298692072922],[-101.00252430528892,32.704965445964305],[-100.95571470112286,32.76554270219642]],"crs":null},"id":41,"type":"Feature","properties":{"length":null,"id":null,"type":null,"SHAPE__Length":338414.4167159742,"objectid":41}},{"geometry":{"type":"LineString","coordinates":[[-101.27121143623837,32.571004485225366],[-101.1813369953053,32.55449565410588],[-101.13405815165902,32.536684180137065]],"crs":null},"id":42,"type":"Feature","properties":{"length":null,"id":null,"type":null,"SHAPE__Length":16004.388694669537,"objectid":42}},{"geometry":{"type":"LineString","coordinates":[[-101.1534528738646,32.65587012503227],[-101.09593323238607,32.64469389227557],[-101.0587082956704,32.63312369423409]],"crs":null},"id":43,"type":"Feature","properties":{"length":null,"id":null,"type":null,"SHAPE__Length":10988.46916134289,"objectid":43}},{"geometry":{"type":"LineString","coordinates":[[-100.90364801667528,32.91505236564512],[-100.93245392817514,32.86183619569361]],"crs":null},"id":44,"type":"Feature","properties":{"length":null,"id":null,"type":null,"SHAPE__Length":7749.242335469225,"objectid":44}},{"geometry":{"type":"LineString","coordinates":[[-102.59052213963297,31.30872007035929],[-102.50756111785512,31.36088133323312],[-102.46377613406416,31.38547566307399]],"crs":null},"id":45,"type":"Feature","properties":{"length":null,"id":null,"type":null,"SHAPE__Length":17301.83042297592,"objectid":45}},{"geometry":{"type":"LineString","coordinates":[[-102.46957778744398,31.405638352103825],[-102.3727494555572,31.42186345463059],[-102.30015856206302,31.444475780817573],[-102.2759615972655,31.40514649224741],[-102.23448108592744,31.330375424873843],[-102.18608715633245,31.281151509156814]],"crs":null},"id":46,"type":"Feature","properties":{"length":null,"id":null,"type":null,"SHAPE__Length":44544.17754300171,"objectid":46}},{"geometry":{"type":"LineString","coordinates":[[-102.56403468196504,31.7180526237195],[-102.49258204376738,31.73401894469916],[-102.38657629386763,31.76341355618761]],"crs":null},"id":47,"type":"Feature","properties":{"length":null,"id":null,"type":null,"SHAPE__Length":20636.021641094198,"objectid":47}},{"geometry":{"type":"LineString","coordinates":[[-102.97652134241225,31.526031399779303],[-102.88895137393204,31.526031399779303],[-102.82212166112087,31.557455533234656],[-102.71150696541707,31.60260918384278],[-102.6124146319776,31.63989352129972],[-102.54404914408534,31.660614050893177]],"crs":null},"id":48,"type":"Feature","properties":{"length":null,"id":null,"type":null,"SHAPE__Length":52037.211939703084,"objectid":48}},{"geometry":{"type":"LineString","coordinates":[[-102.66813678589509,31.98846179563377],[-102.61409651624302,31.991262914980847],[-102.56489640168112,32.00159542964784],[-102.4749297819218,32.02285541977053],[-102.39971178873543,32.08410660919944],[-102.32891838280227,32.149687358898035],[-102.25075066358265,32.201494021098895],[-102.22641543099493,32.210853526150935],[-102.1902812969692,32.19088541762816],[-102.1688957886181,32.15468205516518],[-102.16742092560148,32.137199420966326],[-102.14234826060714,32.13657497898668]],"crs":null},"id":49,"type":"Feature","properties":{"length":null,"id":null,"type":null,"SHAPE__Length":74608.36479242254,"objectid":49}},{"geometry":{"type":"LineString","coordinates":[[-102.50659713482541,32.01537267789844],[-102.4777025236744,31.97582671687511]],"crs":null},"id":50,"type":"Feature","properties":{"length":null,"id":null,"type":null,"SHAPE__Length":6106.5711697191055,"objectid":50}},{"geometry":{"type":"LineString","coordinates":[[-102.88604827764857,32.78058597721951],[-102.78525009558683,32.784373833006455]],"crs":null},"id":51,"type":"Feature","properties":{"length":null,"id":null,"type":null,"SHAPE__Length":11232.005530278902,"objectid":51}},{"geometry":{"type":"LineString","coordinates":[[-102.79101127806648,32.94793364393281],[-102.75819391900414,32.89784682913222],[-102.73129386871949,32.85930876669937],[-102.7154703090944,32.81277500677026],[-102.6917349696568,32.783512733915366],[-102.66325256394865,32.670363528898726],[-102.64584664800174,32.602405123808026],[-102.62052895403893,32.526390560212086],[-102.60154068177019,32.47434350308428],[-102.54299351313372,32.43295128568276]],"crs":null},"id":52,"type":"Feature","properties":{"length":null,"id":null,"type":null,"SHAPE__Length":75217.37724057969,"objectid":52}},{"geometry":{"type":"LineString","coordinates":[[-102.79101127806648,32.94793364393281],[-102.67749376725187,32.936368130231806],[-102.62211131036076,32.92707142013781],[-102.5493229366244,32.88854607169946],[-102.50818168303653,32.880573217733236],[-102.40216383642317,32.887217312895935],[-102.22177525975162,32.88190207691709],[-102.13632803993217,32.8845597347569],[-102.05721024270515,32.90847506913598],[-101.97967480269826,32.933712027156226],[-101.89580993920065,33.0080527540949],[-101.73757434564486,33.10221615919614],[-101.61731529572828,33.1565463156896],[-101.45749734674897,33.23466970279574],[-101.34356772032307,33.2412871247464],[-101.14102616233237,33.23599322680325],[-100.87677272216322,33.233346158003606]],"crs":null},"id":53,"type":"Feature","properties":{"length":null,"id":null,"type":null,"SHAPE__Length":229048.95715344962,"objectid":53}},{"geometry":{"type":"LineString","coordinates":[[-102.68597190341002,32.76062996368922],[-102.60204450459223,32.799690108964484],[-102.5339905407624,32.83672884618356],[-102.53620766013873,32.88600451219963]],"crs":null},"id":54,"type":"Feature","properties":{"length":null,"id":null,"type":null,"SHAPE__Length":26239.259680393254,"objectid":54}},{"geometry":{"type":"LineString","coordinates":[[-102.79101127806648,32.94793364393281],[-102.74398562907459,32.96134859509508],[-102.63963621804852,32.96243620402228],[-102.55343453106971,32.958085685727305],[-102.51260215241248,32.9423132621466],[-102.43677059281909,32.9423132621466],[-102.375846092072,32.931978079951776],[-102.33566184699394,32.9265380246484],[-102.25723775488045,32.92055357775912],[-102.20214645095606,32.91511282077309],[-102.16325847213807,32.902597809686796],[-102.11205596609545,32.86994163005315],[-102.02196548033656,32.83509510987885],[-101.96752230999135,32.80677223823937],[-101.91307913874782,32.77789540531453],[-101.7830361741525,32.724610908918635],[-101.7057727008945,32.67584750305801],[-101.55897210215348,32.70185796810173],[-101.38512928844585,32.74735804504337],[-101.24605503568316,32.77334766134264],[-101.05289635388563,32.77009937437236],[-100.95571470112286,32.76554270219642],[-100.87905353927971,32.75710504030811],[-100.81724276067331,32.73760998322418],[-100.68589485658387,32.75710504030811],[-100.56999964714605,32.76685096809776],[-100.48887300134804,32.79932969012257],[-100.35103496516358,32.873596382225166],[-100.26449987475529,32.89435915999678],[-100.22246854612938,32.91719259470896],[-100.18290964796502,32.96076734506218],[-100.17054749206407,33.05821393399016],[-100.15324047434176,33.134851413941824],[-100.07165024575485,33.196940837369574],[-99.99500488078597,33.203147359722884],[-99.99006001896458,33.37055704296626],[-100.06176052211208,33.47167352295949]],"crs":null},"id":55,"type":"Feature","properties":{"length":null,"id":null,"type":null,"SHAPE__Length":392794.8958952089,"objectid":55}},{"geometry":{"type":"LineString","coordinates":[[-95.18100281087729,29.56383867008575],[-95.13020538843398,29.528950598636666],[-95.12574947333353,29.4808628749212],[-95.12485638714267,29.427827025765783]],"crs":null},"id":57,"type":"Feature","properties":{"length":null,"id":null,"type":null,"SHAPE__Length":20156.333209711604,"objectid":57}},{"geometry":{"type":"LineString","coordinates":[[-94.76364965044756,29.528264907301264],[-94.5120797815914,29.699684905898046],[-94.20611642910669,29.888499061647334],[-94.03953638128347,30.032818706903367],[-93.81516325558901,30.135775723934607],[-93.638384428631,30.185744720207634],[-93.46160560257128,30.253309500080476],[-93.3426198552811,30.33843367677346],[-93.13864428605966,30.39123218513411],[-92.98226301737124,30.426415347127644],[-92.78508663394024,30.467446339248003],[-92.50292043037457,30.479166306104542],[-92.33634038165303,30.502602007874195],[-92.22755341170104,30.51724645475302],[-92.09836888527606,30.490884862162037],[-91.97598354374318,30.526032063886078],[-91.77880716121048,30.54945647235688],[-91.50683973588131,30.54945647235688],[-91.36745643121982,30.526032063886078],[-91.31646253824073,30.435209156835658],[-91.29266538932168,30.312023736847227],[-91.27906701774083,30.235688380185543],[-91.1906776042618,30.165172318039527],[-91.1124869699176,30.097547059049166],[-90.96630447856737,30.05930360414036]],"crs":null},"id":58,"type":"Feature","properties":{"length":null,"id":null,"type":null,"SHAPE__Length":497247.91648516856,"objectid":58}},{"geometry":{"type":"LineString","coordinates":[[-91.1124869699176,30.097547059049166],[-91.06557258895174,30.243911963354705],[-90.93502822518901,30.326579429106587],[-90.83711995214237,30.422311299142713],[-90.82406551585592,30.508577209212504],[-90.81971403709377,30.630344295667978],[-90.75444185476324,30.806167460022923],[-90.70724583219291,30.99940461692516],[-90.57385548523582,31.141952997753418],[-90.49552886572053,31.28709252104413],[-90.42808094490725,31.32984751007903],[-90.42155372676405,31.50067319393757],[-90.32799693158123,31.673039031081686],[-90.16481647710238,31.92821893363493],[-90.0125147186306,32.179009643754405],[-89.90155201019584,32.29311228636309],[-89.91895792524441,32.463997231045994]],"crs":null},"id":59,"type":"Feature","properties":{"length":null,"id":null,"type":null,"SHAPE__Length":348699.1584821072,"objectid":59}},{"geometry":{"type":"LineString","coordinates":[[-91.18306251732636,31.55630990824397],[-90.8436471702856,31.574848112083465],[-90.50205608386376,31.593382630237528],[-90.35778039606147,31.61820159675464]],"crs":null},"id":60,"type":"Feature","properties":{"length":null,"id":null,"type":null,"SHAPE__Length":92348.9349001541,"objectid":60}},{"geometry":{"type":"LineString","coordinates":[[-90.50205608386376,31.593382630237528],[-90.42155372676405,31.50067319393757]],"crs":null},"id":61,"type":"Feature","properties":{"length":null,"id":null,"type":null,"SHAPE__Length":15065.288431247109,"objectid":61}},{"geometry":{"type":"LineString","coordinates":[[-91.58775004490101,32.463997231045994],[-91.45502994175722,32.45481809312148],[-91.21134712928031,32.45298215314302],[-91.12431755313905,32.42543856397095],[-91.03728797699779,32.41441877177973],[-91.03076075885457,32.45848986008186],[-90.85235012780988,32.469504266004925],[-90.68046671490843,32.56490598664005],[-90.57820696309966,32.59057375700256],[-90.4911773869584,32.660206364207916],[-90.39326911391176,32.70049520785307],[-90.2561975320058,32.65471102307941],[-90.10607151381338,32.56857326069513],[-89.98423010667663,32.504374326940216],[-89.91895792524441,32.463997231045994],[-89.85151000443115,32.418092185912116],[-89.827576870341,32.37032614888875],[-89.81887391281671,32.282076358774674],[-89.80146799776811,32.20294626182282],[-89.77100764643309,32.14217178772106],[-89.70791120258532,32.061076114638205],[-89.610002930437,31.98729033031979],[-89.4925130029607,31.92821893363493],[-89.39242898963468,31.865413967940757],[-89.29669645686745,31.804415255078116],[-89.12481304396597,31.785922837805064],[-88.97251128639252,31.791470952005426],[-88.75928882525065,31.732273915221306]],"crs":null},"id":62,"type":"Feature","properties":{"length":null,"id":null,"type":null,"SHAPE__Length":388162.73067166045,"objectid":62}},{"geometry":{"type":"LineString","coordinates":[[-93.98637218912066,29.863426198180168],[-94.07937145031225,29.99832594065884]],"crs":null},"id":63,"type":"Feature","properties":{"length":null,"id":null,"type":null,"SHAPE__Length":20185.10344856047,"objectid":63}},{"geometry":{"type":"LineString","coordinates":[[-90.36716024223718,29.91631897530584],[-90.46071703562336,29.842744361649995]],"crs":null},"id":64,"type":"Feature","properties":{"length":null,"id":null,"type":null,"SHAPE__Length":14060.24985326595,"objectid":64}},{"geometry":{"type":"LineString","coordinates":[[-95.29085850382786,29.49110524399567],[-95.22993780115779,29.458904959658362],[-95.12485638714267,29.427827025765783],[-95.02541829664193,29.428589470117007],[-94.968849072734,29.455116018660263]],"crs":null},"id":65,"type":"Feature","properties":{"length":null,"id":null,"type":null,"SHAPE__Length":38509.50781810282,"objectid":65}},{"geometry":{"type":"LineString","coordinates":[[-103.35293336605162,49.469189191028825],[-103.54947232471996,49.46228480194297],[-103.66633332819112,49.44156579772634],[-103.70351637466844,49.38972996894452],[-103.6610214650503,49.32745469899893],[-103.52822487036003,49.23389390486858],[-103.32637404675424,49.11930070376611],[-103.21636317073667,48.999421689004166],[-103.11921136000763,48.89630280007225],[-103.01297408461474,48.85088428582388],[-102.93860799166006,48.833404646853786],[-102.93860799166006,48.73540591121067],[-102.88548935396364,48.66879776574268],[-102.88017748992449,48.535316967032614],[-102.89080121800276,48.06535416110574],[-102.88548935396364,47.79129156984698],[-102.88017748992449,47.712721160884776],[-102.82174698908723,47.65192640482828],[-102.85361817242374,47.601806933129474],[-102.83237071716552,47.5157760148447],[-102.75269276017168,47.43679022870144],[-102.47647584361121,47.40444363926454],[-102.0674623341571,47.41163348826779],[-101.82311660003485,47.35768569871458]],"crs":null},"id":66,"type":"Feature","properties":{"length":null,"id":null,"type":null,"SHAPE__Length":520977.85189785337,"objectid":66}},{"geometry":{"type":"LineString","coordinates":[[-103.03953340391212,49.10191495186377],[-103.30830431982982,49.09962993977035]],"crs":null},"id":67,"type":"Feature","properties":{"length":null,"id":null,"type":null,"SHAPE__Length":29921.96377442081,"objectid":67}}],"type":"FeatureCollection","properties":{"exceededTransferLimit":false}}